IRIDIUM 7 [-]           
1 24793U 97020B   24074.33724519  .00000570  00000+0  19305-3 0  9996
2 24793  86.4018   9.5336 0002099  92.7165 267.4272 14.35113688406145
IRIDIUM 4 [-]           
1 24796U 97020E   24074.33530400  .00000633  00000+0  21100-3 0  9999
2 24796  86.4015   6.7202 0002044  85.6487 274.4944 14.36030271406482
IRIDIUM 16 [-]          
1 24841U 97030F   24074.17828069  .00000708  00000+0  22879-3 0  9991
2 24841  86.4045  38.4543 0003945 110.7293 249.4328 14.37753221401146
IRIDIUM 17 [-]          
1 24870U 97034B   24074.50517527  .00000624  00000+0  20476-3 0  9996
2 24870  86.3912  67.9520 0003894  84.8767 275.2875 14.36841506397558
IRIDIUM 920 [-]         
1 24871U 97034C   24074.20255056  .00000644  00000+0  19590-3 0  9997
2 24871  86.3964  48.3684 0012471 149.2979 210.8952 14.40567494400598
