<?xml version="1.0" encoding="UTF-8"?>
<ndm xmlns:xsi="http://www.w3.org/2001/XMLSchema-instance" xsi:noNamespaceSchemaLocation="https://sanaregistry.org/r/ndmxml_unqualified/ndmxml-2.0.0-master-2.0.xsd">
<omm id="CCSDS_OMM_VERS" version="2.0">
<header><CREATION_DATE/><ORIGINATOR/></header><body><segment><metadata><OBJECT_NAME>IRIDIUM 7 [-]</OBJECT_NAME><OBJECT_ID>1997-020B</OBJECT_ID><CENTER_NAME>EARTH</CENTER_NAME><REF_FRAME>TEME</REF_FRAME><TIME_SYSTEM>UTC</TIME_SYSTEM><MEAN_ELEMENT_THEORY>SGP4</MEAN_ELEMENT_THEORY></metadata><data><meanElements><EPOCH>2024-03-14T08:05:37.984416</EPOCH><MEAN_MOTION>14.35113688</MEAN_MOTION><ECCENTRICITY>.0002099</ECCENTRICITY><INCLINATION>86.4018</INCLINATION><RA_OF_ASC_NODE>9.5336</RA_OF_ASC_NODE><ARG_OF_PERICENTER>92.7165</ARG_OF_PERICENTER><MEAN_ANOMALY>267.4272</MEAN_ANOMALY></meanElements><tleParameters><EPHEMERIS_TYPE>0</EPHEMERIS_TYPE><CLASSIFICATION_TYPE>U</CLASSIFICATION_TYPE><NORAD_CAT_ID>24793</NORAD_CAT_ID><ELEMENT_SET_NO>999</ELEMENT_SET_NO><REV_AT_EPOCH>40614</REV_AT_EPOCH><BSTAR>.19305E-3</BSTAR><MEAN_MOTION_DOT>.57E-5</MEAN_MOTION_DOT><MEAN_MOTION_DDOT>0</MEAN_MOTION_DDOT></tleParameters></data></segment></body></omm>
<omm id="CCSDS_OMM_VERS" version="2.0">
<header><CREATION_DATE/><ORIGINATOR/></header><body><segment><metadata><OBJECT_NAME>IRIDIUM 4 [-]</OBJECT_NAME><OBJECT_ID>1997-020E</OBJECT_ID><CENTER_NAME>EARTH</CENTER_NAME><REF_FRAME>TEME</REF_FRAME><TIME_SYSTEM>UTC</TIME_SYSTEM><MEAN_ELEMENT_THEORY>SGP4</MEAN_ELEMENT_THEORY></metadata><data><meanElements><EPOCH>2024-03-14T08:02:50.265600</EPOCH><MEAN_MOTION>14.36030271</MEAN_MOTION><ECCENTRICITY>.0002044</ECCENTRICITY><INCLINATION>86.4015</INCLINATION><RA_OF_ASC_NODE>6.7202</RA_OF_ASC_NODE><ARG_OF_PERICENTER>85.6487</ARG_OF_PERICENTER><MEAN_ANOMALY>274.4944</MEAN_ANOMALY></meanElements><tleParameters><EPHEMERIS_TYPE>0</EPHEMERIS_TYPE><CLASSIFICATION_TYPE>U</CLASSIFICATION_TYPE><NORAD_CAT_ID>24796</NORAD_CAT_ID><ELEMENT_SET_NO>999</ELEMENT_SET_NO><REV_AT_EPOCH>40648</REV_AT_EPOCH><BSTAR>.211E-3</BSTAR><MEAN_MOTION_DOT>.633E-5</MEAN_MOTION_DOT><MEAN_MOTION_DDOT>0</MEAN_MOTION_DDOT></tleParameters></data></segment></body></omm>
<omm id="CCSDS_OMM_VERS" version="2.0">
<header><CREATION_DATE/><ORIGINATOR/></header><body><segment><metadata><OBJECT_NAME>IRIDIUM 16 [-]</OBJECT_NAME><OBJECT_ID>1997-030F</OBJECT_ID><CENTER_NAME>EARTH</CENTER_NAME><REF_FRAME>TEME</REF_FRAME><TIME_SYSTEM>UTC</TIME_SYSTEM><MEAN_ELEMENT_THEORY>SGP4</MEAN_ELEMENT_THEORY></metadata><data><meanElements><EPOCH>2024-03-14T04:16:43.451616</EPOCH><MEAN_MOTION>14.37753221</MEAN_MOTION><ECCENTRICITY>.0003945</ECCENTRICITY><INCLINATION>86.4045</INCLINATION><RA_OF_ASC_NODE>38.4543</RA_OF_ASC_NODE><ARG_OF_PERICENTER>110.7293</ARG_OF_PERICENTER><MEAN_ANOMALY>249.4328</MEAN_ANOMALY></meanElements><tleParameters><EPHEMERIS_TYPE>0</EPHEMERIS_TYPE><CLASSIFICATION_TYPE>U</CLASSIFICATION_TYPE><NORAD_CAT_ID>24841</NORAD_CAT_ID><ELEMENT_SET_NO>999</ELEMENT_SET_NO><REV_AT_EPOCH>40114</REV_AT_EPOCH><BSTAR>.22879E-3</BSTAR><MEAN_MOTION_DOT>.708E-5</MEAN_MOTION_DOT><MEAN_MOTION_DDOT>0</MEAN_MOTION_DDOT></tleParameters></data></segment></body></omm>
<omm id="CCSDS_OMM_VERS" version="2.0">
<header><CREATION_DATE/><ORIGINATOR/></header><body><segment><metadata><OBJECT_NAME>IRIDIUM 17 [-]</OBJECT_NAME><OBJECT_ID>1997-034B</OBJECT_ID><CENTER_NAME>EARTH</CENTER_NAME><REF_FRAME>TEME</REF_FRAME><TIME_SYSTEM>UTC</TIME_SYSTEM><MEAN_ELEMENT_THEORY>SGP4</MEAN_ELEMENT_THEORY></metadata><data><meanElements><EPOCH>2024-03-14T12:07:27.143328</EPOCH><MEAN_MOTION>14.36841506</MEAN_MOTION><ECCENTRICITY>.0003894</ECCENTRICITY><INCLINATION>86.3912</INCLINATION><RA_OF_ASC_NODE>67.9520</RA_OF_ASC_NODE><ARG_OF_PERICENTER>84.8767</ARG_OF_PERICENTER><MEAN_ANOMALY>275.2875</MEAN_ANOMALY></meanElements><tleParameters><EPHEMERIS_TYPE>0</EPHEMERIS_TYPE><CLASSIFICATION_TYPE>U</CLASSIFICATION_TYPE><NORAD_CAT_ID>24870</NORAD_CAT_ID><ELEMENT_SET_NO>999</ELEMENT_SET_NO><REV_AT_EPOCH>39755</REV_AT_EPOCH><BSTAR>.20476E-3</BSTAR><MEAN_MOTION_DOT>.624E-5</MEAN_MOTION_DOT><MEAN_MOTION_DDOT>0</MEAN_MOTION_DDOT></tleParameters></data></segment></body></omm>
<omm id="CCSDS_OMM_VERS" version="2.0">
<header><CREATION_DATE/><ORIGINATOR/></header><body><segment><metadata><OBJECT_NAME>IRIDIUM 920 [-]</OBJECT_NAME><OBJECT_ID>1997-034C</OBJECT_ID><CENTER_NAME>EARTH</CENTER_NAME><REF_FRAME>TEME</REF_FRAME><TIME_SYSTEM>UTC</TIME_SYSTEM><MEAN_ELEMENT_THEORY>SGP4</MEAN_ELEMENT_THEORY></metadata><data><meanElements><EPOCH>2024-03-14T04:51:40.368384</EPOCH><MEAN_MOTION>14.40567494</MEAN_MOTION><ECCENTRICITY>.0012471</ECCENTRICITY><INCLINATION>86.3964</INCLINATION><RA_OF_ASC_NODE>48.3684</RA_OF_ASC_NODE><ARG_OF_PERICENTER>149.2979</ARG_OF_PERICENTER><MEAN_ANOMALY>210.8952</MEAN_ANOMALY></meanElements><tleParameters><EPHEMERIS_TYPE>0</EPHEMERIS_TYPE><CLASSIFICATION_TYPE>U</CLASSIFICATION_TYPE><NORAD_CAT_ID>24871</NORAD_CAT_ID><ELEMENT_SET_NO>999</ELEMENT_SET_NO><REV_AT_EPOCH>40059</REV_AT_EPOCH><BSTAR>.1959E-3</BSTAR><MEAN_MOTION_DOT>.644E-5</MEAN_MOTION_DOT><MEAN_MOTION_DDOT>0</MEAN_MOTION_DDOT></tleParameters></data></segment></body></omm>

</ndm>
